ONEWEB-0456             
1 51646U 22012AA  23300.86407693  .00000612  00000+0  17171-2 0  9997
2 51646  87.8915 227.5582 0001705  63.2892 296.8410 13.10372282 84478
ONEWEB-0457             
1 51647U 22012AB  23300.53587161 -.00000433  00000+0 -12774-2 0  9998
2 51647  87.8915 227.6264 0002098  84.5141 275.6225 13.10375402 83145
ONEWEB-0458             
1 51648U 22012AC  23300.55702447  .00000632  00000+0  17753-2 0  9998
2 51648  87.8916 227.6352 0002099  69.9776 290.1577 13.10374340 83105
ONEWEB-0461             
1 51649U 22012AD  23300.21789876  .00000077  00000+0  16508-3 0  9994
2 51649  87.9246 197.4533 0001891  78.2603 281.8740 13.17652916 86948
ONEWEB-0463             
1 51650U 22012AE  23300.42881763  .00000056  00000+0  10994-3 0  9997
2 51650  87.9256 197.4473 0001768  79.6794 280.4537 13.17647925 86755
ONEWEB-0464             
1 51651U 22012AF  23300.85918044  .00000536  00000+0  14995-2 0  9995
2 51651  87.8917 227.5638 0001785  58.4041 301.7260 13.10376419 84462
ONEWEB-0468             
1 51652U 22012AG  23300.56026645  .00000533  00000+0  14919-2 0  9994
2 51652  87.8915 227.6163 0001965  71.5196 288.6145 13.10373906 83105
ONEWEB-0473             
1 51653U 22012AH  23300.54563162  .00000079  00000+0  19073-3 0  9995
2 51653  87.8917 227.6230 0001999  68.8891 291.2449 13.10375340 83102
